ORBCOMM FM20            
1 25416U 98046D   24132.49528380  .00003874  00000+0  13905-2 0  9997
2 25416  44.9946 280.6824 0000875 204.1277 155.9529 14.35217158346555
ORBCOMM FM16            
1 25417U 98046E   24132.52287034  .00010827  00000+0  37200-2 0  9990
2 25417  44.9941 276.3139 0002938  97.8853 262.2328 14.36200189346670
ORBCOMM FM15            
1 25418U 98046F   24131.71430712  .00003002  00000+0  10736-2 0  9996
2 25418  44.9968 284.1967 0002733  95.7737 264.3422 14.35906698346346
ORBCOMM FM14            
1 25419U 98046G   24132.52488796  .00008699  00000+0  30058-2 0  9998
2 25419  44.9958 279.4803 0001347 101.8959   5.0501 14.36092557346649
ORBCOMM FM13            
1 25420U 98046H   24132.75925638  .00007823  00000+0  27473-2 0  9991
2 25420  44.9972 283.2513 0003482  71.8586 288.2640 14.35376109346648
ORBCOMM FM21            
1 25475U 98053A   24132.77952114  .00005766  00000+0  20413-2 0  9991
2 25475  45.0094   7.4747 0001057  20.9401 339.1489 14.35309662339860
ORBCOMM FM22            
1 25476U 98053B   24132.89583277  .00007319  00000+0  25501-2 0  9994
2 25476  45.0088   4.2062 0002543  11.5744 348.5162 14.35838291339908
ORBCOMM FM23            
1 25477U 98053C   24132.73812064  .00006131  00000+0  21652-2 0  9991
2 25477  45.0095  10.0964 0002053   7.5612 352.5266 14.35354217339987
