<?xml version="1.0" encoding="UTF-8"?>
<ndm xmlns:xsi="http://www.w3.org/2001/XMLSchema-instance" xsi:noNamespaceSchemaLocation="https://sanaregistry.org/r/ndmxml_unqualified/ndmxml-2.0.0-master-2.0.xsd">
<omm id="CCSDS_OMM_VERS" version="2.0">
<header><CREATION_DATE/><ORIGINATOR/></header><body><segment><metadata><OBJECT_NAME>ORBCOMM FM20</OBJECT_NAME><OBJECT_ID>1998-046D</OBJECT_ID><CENTER_NAME>EARTH</CENTER_NAME><REF_FRAME>TEME</REF_FRAME><TIME_SYSTEM>UTC</TIME_SYSTEM><MEAN_ELEMENT_THEORY>SGP4</MEAN_ELEMENT_THEORY></metadata><data><meanElements><EPOCH>2024-05-11T11:53:12.520320</EPOCH><MEAN_MOTION>14.35217158</MEAN_MOTION><ECCENTRICITY>.0000875</ECCENTRICITY><INCLINATION>44.9946</INCLINATION><RA_OF_ASC_NODE>280.6824</RA_OF_ASC_NODE><ARG_OF_PERICENTER>204.1277</ARG_OF_PERICENTER><MEAN_ANOMALY>155.9529</MEAN_ANOMALY></meanElements><tleParameters><EPHEMERIS_TYPE>0</EPHEMERIS_TYPE><CLASSIFICATION_TYPE>U</CLASSIFICATION_TYPE><NORAD_CAT_ID>25416</NORAD_CAT_ID><ELEMENT_SET_NO>999</ELEMENT_SET_NO><REV_AT_EPOCH>34655</REV_AT_EPOCH><BSTAR>.13905E-2</BSTAR><MEAN_MOTION_DOT>.3874E-4</MEAN_MOTION_DOT><MEAN_MOTION_DDOT>0</MEAN_MOTION_DDOT></tleParameters></data></segment></body></omm>
<omm id="CCSDS_OMM_VERS" version="2.0">
<header><CREATION_DATE/><ORIGINATOR/></header><body><segment><metadata><OBJECT_NAME>ORBCOMM FM16</OBJECT_NAME><OBJECT_ID>1998-046E</OBJECT_ID><CENTER_NAME>EARTH</CENTER_NAME><REF_FRAME>TEME</REF_FRAME><TIME_SYSTEM>UTC</TIME_SYSTEM><MEAN_ELEMENT_THEORY>SGP4</MEAN_ELEMENT_THEORY></metadata><data><meanElements><EPOCH>2024-05-11T12:32:55.997376</EPOCH><MEAN_MOTION>14.36200189</MEAN_MOTION><ECCENTRICITY>.0002938</ECCENTRICITY><INCLINATION>44.9941</INCLINATION><RA_OF_ASC_NODE>276.3139</RA_OF_ASC_NODE><ARG_OF_PERICENTER>97.8853</ARG_OF_PERICENTER><MEAN_ANOMALY>262.2328</MEAN_ANOMALY></meanElements><tleParameters><EPHEMERIS_TYPE>0</EPHEMERIS_TYPE><CLASSIFICATION_TYPE>U</CLASSIFICATION_TYPE><NORAD_CAT_ID>25417</NORAD_CAT_ID><ELEMENT_SET_NO>999</ELEMENT_SET_NO><REV_AT_EPOCH>34667</REV_AT_EPOCH><BSTAR>.372E-2</BSTAR><MEAN_MOTION_DOT>.10827E-3</MEAN_MOTION_DOT><MEAN_MOTION_DDOT>0</MEAN_MOTION_DDOT></tleParameters></data></segment></body></omm>
<omm id="CCSDS_OMM_VERS" version="2.0">
<header><CREATION_DATE/><ORIGINATOR/></header><body><segment><metadata><OBJECT_NAME>ORBCOMM FM15</OBJECT_NAME><OBJECT_ID>1998-046F</OBJECT_ID><CENTER_NAME>EARTH</CENTER_NAME><REF_FRAME>TEME</REF_FRAME><TIME_SYSTEM>UTC</TIME_SYSTEM><MEAN_ELEMENT_THEORY>SGP4</MEAN_ELEMENT_THEORY></metadata><data><meanElements><EPOCH>2024-05-10T17:08:36.135168</EPOCH><MEAN_MOTION>14.35906698</MEAN_MOTION><ECCENTRICITY>.0002733</ECCENTRICITY><INCLINATION>44.9968</INCLINATION><RA_OF_ASC_NODE>284.1967</RA_OF_ASC_NODE><ARG_OF_PERICENTER>95.7737</ARG_OF_PERICENTER><MEAN_ANOMALY>264.3422</MEAN_ANOMALY></meanElements><tleParameters><EPHEMERIS_TYPE>0</EPHEMERIS_TYPE><CLASSIFICATION_TYPE>U</CLASSIFICATION_TYPE><NORAD_CAT_ID>25418</NORAD_CAT_ID><ELEMENT_SET_NO>999</ELEMENT_SET_NO><REV_AT_EPOCH>34634</REV_AT_EPOCH><BSTAR>.10736E-2</BSTAR><MEAN_MOTION_DOT>.3002E-4</MEAN_MOTION_DOT><MEAN_MOTION_DDOT>0</MEAN_MOTION_DDOT></tleParameters></data></segment></body></omm>
<omm id="CCSDS_OMM_VERS" version="2.0">
<header><CREATION_DATE/><ORIGINATOR/></header><body><segment><metadata><OBJECT_NAME>ORBCOMM FM14</OBJECT_NAME><OBJECT_ID>1998-046G</OBJECT_ID><CENTER_NAME>EARTH</CENTER_NAME><REF_FRAME>TEME</REF_FRAME><TIME_SYSTEM>UTC</TIME_SYSTEM><MEAN_ELEMENT_THEORY>SGP4</MEAN_ELEMENT_THEORY></metadata><data><meanElements><EPOCH>2024-05-11T12:35:50.319744</EPOCH><MEAN_MOTION>14.36092557</MEAN_MOTION><ECCENTRICITY>.0001347</ECCENTRICITY><INCLINATION>44.9958</INCLINATION><RA_OF_ASC_NODE>279.4803</RA_OF_ASC_NODE><ARG_OF_PERICENTER>101.8959</ARG_OF_PERICENTER><MEAN_ANOMALY>5.0501</MEAN_ANOMALY></meanElements><tleParameters><EPHEMERIS_TYPE>0</EPHEMERIS_TYPE><CLASSIFICATION_TYPE>U</CLASSIFICATION_TYPE><NORAD_CAT_ID>25419</NORAD_CAT_ID><ELEMENT_SET_NO>999</ELEMENT_SET_NO><REV_AT_EPOCH>34664</REV_AT_EPOCH><BSTAR>.30058E-2</BSTAR><MEAN_MOTION_DOT>.8699E-4</MEAN_MOTION_DOT><MEAN_MOTION_DDOT>0</MEAN_MOTION_DDOT></tleParameters></data></segment></body></omm>
<omm id="CCSDS_OMM_VERS" version="2.0">
<header><CREATION_DATE/><ORIGINATOR/></header><body><segment><metadata><OBJECT_NAME>ORBCOMM FM13</OBJECT_NAME><OBJECT_ID>1998-046H</OBJECT_ID><CENTER_NAME>EARTH</CENTER_NAME><REF_FRAME>TEME</REF_FRAME><TIME_SYSTEM>UTC</TIME_SYSTEM><MEAN_ELEMENT_THEORY>SGP4</MEAN_ELEMENT_THEORY></metadata><data><meanElements><EPOCH>2024-05-11T18:13:19.751232</EPOCH><MEAN_MOTION>14.35376109</MEAN_MOTION><ECCENTRICITY>.0003482</ECCENTRICITY><INCLINATION>44.9972</INCLINATION><RA_OF_ASC_NODE>283.2513</RA_OF_ASC_NODE><ARG_OF_PERICENTER>71.8586</ARG_OF_PERICENTER><MEAN_ANOMALY>288.2640</MEAN_ANOMALY></meanElements><tleParameters><EPHEMERIS_TYPE>0</EPHEMERIS_TYPE><CLASSIFICATION_TYPE>U</CLASSIFICATION_TYPE><NORAD_CAT_ID>25420</NORAD_CAT_ID><ELEMENT_SET_NO>999</ELEMENT_SET_NO><REV_AT_EPOCH>34664</REV_AT_EPOCH><BSTAR>.27473E-2</BSTAR><MEAN_MOTION_DOT>.7823E-4</MEAN_MOTION_DOT><MEAN_MOTION_DDOT>0</MEAN_MOTION_DDOT></tleParameters></data></segment></body></omm>
<omm id="CCSDS_OMM_VERS" version="2.0">
<header><CREATION_DATE/><ORIGINATOR/></header><body><segment><metadata><OBJECT_NAME>ORBCOMM FM21</OBJECT_NAME><OBJECT_ID>1998-053A</OBJECT_ID><CENTER_NAME>EARTH</CENTER_NAME><REF_FRAME>TEME</REF_FRAME><TIME_SYSTEM>UTC</TIME_SYSTEM><MEAN_ELEMENT_THEORY>SGP4</MEAN_ELEMENT_THEORY></metadata><data><meanElements><EPOCH>2024-05-11T18:42:30.626496</EPOCH><MEAN_MOTION>14.35309662</MEAN_MOTION><ECCENTRICITY>.0001057</ECCENTRICITY><INCLINATION>45.0094</INCLINATION><RA_OF_ASC_NODE>7.4747</RA_OF_ASC_NODE><ARG_OF_PERICENTER>20.9401</ARG_OF_PERICENTER><MEAN_ANOMALY>339.1489</MEAN_ANOMALY></meanElements><tleParameters><EPHEMERIS_TYPE>0</EPHEMERIS_TYPE><CLASSIFICATION_TYPE>U</CLASSIFICATION_TYPE><NORAD_CAT_ID>25475</NORAD_CAT_ID><ELEMENT_SET_NO>999</ELEMENT_SET_NO><REV_AT_EPOCH>33986</REV_AT_EPOCH><BSTAR>.20413E-2</BSTAR><MEAN_MOTION_DOT>.5766E-4</MEAN_MOTION_DOT><MEAN_MOTION_DDOT>0</MEAN_MOTION_DDOT></tleParameters></data></segment></body></omm>
<omm id="CCSDS_OMM_VERS" version="2.0">
<header><CREATION_DATE/><ORIGINATOR/></header><body><segment><metadata><OBJECT_NAME>ORBCOMM FM22</OBJECT_NAME><OBJECT_ID>1998-053B</OBJECT_ID><CENTER_NAME>EARTH</CENTER_NAME><REF_FRAME>TEME</REF_FRAME><TIME_SYSTEM>UTC</TIME_SYSTEM><MEAN_ELEMENT_THEORY>SGP4</MEAN_ELEMENT_THEORY></metadata><data><meanElements><EPOCH>2024-05-11T21:29:59.951328</EPOCH><MEAN_MOTION>14.35838291</MEAN_MOTION><ECCENTRICITY>.0002543</ECCENTRICITY><INCLINATION>45.0088</INCLINATION><RA_OF_ASC_NODE>4.2062</RA_OF_ASC_NODE><ARG_OF_PERICENTER>11.5744</ARG_OF_PERICENTER><MEAN_ANOMALY>348.5162</MEAN_ANOMALY></meanElements><tleParameters><EPHEMERIS_TYPE>0</EPHEMERIS_TYPE><CLASSIFICATION_TYPE>U</CLASSIFICATION_TYPE><NORAD_CAT_ID>25476</NORAD_CAT_ID><ELEMENT_SET_NO>999</ELEMENT_SET_NO><REV_AT_EPOCH>33990</REV_AT_EPOCH><BSTAR>.25501E-2</BSTAR><MEAN_MOTION_DOT>.7319E-4</MEAN_MOTION_DOT><MEAN_MOTION_DDOT>0</MEAN_MOTION_DDOT></tleParameters></data></segment></body></omm>
<omm id="CCSDS_OMM_VERS" version="2.0">
<header><CREATION_DATE/><ORIGINATOR/></header><body><segment><metadata><OBJECT_NAME>ORBCOMM FM23</OBJECT_NAME><OBJECT_ID>1998-053C</OBJECT_ID><CENTER_NAME>EARTH</CENTER_NAME><REF_FRAME>TEME</REF_FRAME><TIME_SYSTEM>UTC</TIME_SYSTEM><MEAN_ELEMENT_THEORY>SGP4</MEAN_ELEMENT_THEORY></metadata><data><meanElements><EPOCH>2024-05-11T17:42:53.623296</EPOCH><MEAN_MOTION>14.35354217</MEAN_MOTION><ECCENTRICITY>.0002053</ECCENTRICITY><INCLINATION>45.0095</INCLINATION><RA_OF_ASC_NODE>10.0964</RA_OF_ASC_NODE><ARG_OF_PERICENTER>7.5612</ARG_OF_PERICENTER><MEAN_ANOMALY>352.5266</MEAN_ANOMALY></meanElements><tleParameters><EPHEMERIS_TYPE>0</EPHEMERIS_TYPE><CLASSIFICATION_TYPE>U</CLASSIFICATION_TYPE><NORAD_CAT_ID>25477</NORAD_CAT_ID><ELEMENT_SET_NO>999</ELEMENT_SET_NO><REV_AT_EPOCH>33998</REV_AT_EPOCH><BSTAR>.21652E-2</BSTAR><MEAN_MOTION_DOT>.6131E-4</MEAN_MOTION_DOT><MEAN_MOTION_DDOT>0</MEAN_MOTION_DDOT></tleParameters></data></segment></body></omm>

</ndm>
